#aV2023  5 22  0  0  0.00000000     288 DD+AD WGS84 FIT  NGA
## 2263  86400.00000000   300.00000000 60086 0.0000000000000
+   32     1  2  3  4  5  6  7  8  9 10 11 12 13 14 15 16 17
+         18 19 20 21 22 23 24 25 26 27 28 29 30 31 32  0  0
+          0  0  0  0  0  0  0  0  0  0  0  0  0  0  0  0  0
+          0  0  0  0  0  0  0  0  0  0  0  0  0  0  0  0  0
+          0  0  0  0  0  0  0  0  0  0  0  0  0  0  0  0  0
++         2  2  2  2  2  2  2  2  2  2  2  2  2  2  2  2  2
++         2  2  2  2  2  2  2  2  2  2  2  2  2  2  2  0  0
++         0  0  0  0  0  0  0  0  0  0  0  0  0  0  0  0  0
++         0  0  0  0  0  0  0  0  0  0  0  0  0  0  0  0  0
++         0  0  0  0  0  0  0  0  0  0  0  0  0  0  0  0  0
%c cc cc ccc ccc cccc cccc cccc cccc ccccc ccccc ccccc ccccc
%c cc cc ccc ccc cccc cccc cccc cccc ccccc ccccc ccccc ccccc
%f  0.0000000  0.000000000  0.00000000000  0.000000000000000
%f  0.0000000  0.000000000  0.00000000000  0.000000000000000
%i    0    0    0    0      0      0      0      0         0
%i    0    0    0    0      0      0      0      0         0
/*      NGA, ST. LOUIS,MO.                                  
/*   EPHEMERIS COMPUTED FROM 2 DAYS OF DATA                 
/*   EPOCHA v8 SMOOTHER                                     
/*   G2139 IERS2010 SATIGS SATAPC                           
*  2023  5 22  3 50  0.00000000
P  1 -14130.948060   2867.333738  21968.084996    183.591682                    
V  1  -5809.848050 -28041.883198    263.064189     -0.027282                    
P  2 -14430.752358 -19528.120586  11717.802518   -593.742944                    
V  2  -2307.016658 -13826.935631 -26911.289364      0.039260                    
P  3 -21923.763509  11235.750031   9633.841020   -296.026213                    
V  3   7752.729715  -9958.005985  28978.656617      0.117318                    
P  4 -22927.556102   1745.976748 -13378.930518     47.693977                    
V  4 -15276.784783  -7671.629166  25042.913924      0.098790                    
P  5  16854.550900   3155.018659 -20489.356661   -128.115966                    
V  5 -17464.990560  18705.198731 -11469.709942     -0.014633                    
P  6   4999.576075  26022.846139    697.117074    587.727169                    
V  6  -2118.580556   -384.937376  32421.123776     -0.007147                    
P  7  -8190.744706  18354.665280 -16652.175944    172.278842                    
V  7  -7065.658299 -21232.747019 -19879.691661     -0.094657                    
P  8 -25999.054965  -6104.284129   1868.537138   -123.601175                    
V  8  -1635.681705  -3122.067534 -31331.882624     -0.018981                    
P  9 -14965.779934  10044.939455 -19592.119637   -153.506175                    
V  9 -23381.654095  -8149.630715  13690.054860      0.084874                    
P 10   6212.643755 -20269.331991  15979.218174    -37.924509                    
V 10  15919.708465 -12305.024750 -22342.872612     -0.016402                    
P 11  12498.161499  19390.389220 -13190.988481   -205.739801                    
V 11    681.634853  16856.262833  25370.292925     -0.141390                    
P 12  22464.383796  -7567.057749  11614.933718   -378.986817                    
V 12 -10428.597559  11317.663415  26980.137584     -0.046824                    
P 13  22567.115610  13722.453703  -3896.643596    523.322462                    
V 13  -5237.220101     73.245892 -31301.636881      0.053070                    
P 14  -9456.154936  20792.704980  13436.960105     64.969212                    
V 14 -14691.565680   9182.751599 -24718.301552      0.126996                    
P 15  26428.585924   3088.032067   1793.149094     41.733947                    
V 15   2190.640479   3928.459497 -30828.586258      0.034594                    
P 16 -14277.212357  -7727.239752 -21403.041351   -498.885425                    
V 16  20714.272078 -16324.309235  -7595.250249      0.034160                    
P 17    578.073102  15972.252345  21625.548637    715.671038                    
V 17 -24858.032823  -9013.955450   7573.855039      0.014045                    
P 18   6170.587884 -20979.698949 -14965.428699   -276.226600                    
V 18   5563.198415  18299.276222 -23509.640875     -0.156511                    
P 19  10102.541643  17321.963322  17342.894848    320.131688                    
V 19 -20991.015793  -7711.071981  19379.154655      0.051103                    
P 20  10706.718305  11317.816396 -21485.736212    432.268339                    
V 20 -17007.844499  21480.058464   2647.515197     -0.021039                    
P 21 -16861.030205  -6664.699572  20230.652298    153.678605                    
V 21  -6650.744525 -23313.992924 -12747.594505     -0.002496                    
P 22 -12945.521175 -17340.828972  15957.268220    485.328907                    
V 22  18562.425111   5808.532964  21842.915994      0.062937                    
P 23  15944.963126 -20462.373018   5314.216763     26.212351                    
V 23   6563.373652  -2940.773016 -31190.807694      0.032065                    
P 24  16386.317098   1382.502035  20566.384867   -197.429078                    
V 24   7409.767406  25935.207592  -7100.711604     -0.137085                    
P 25  20016.839464 -17120.934491   1674.594812    444.510126                    
V 25    407.950284   4123.044701  31673.762500      0.026561                    
P 26  -4427.347120 -16847.258736 -20080.246156    240.466277                    
V 26  18585.156093 -17412.509758  10913.569111     -0.005567                    
P 27 -21643.113343 -13179.643645  -8880.876938     32.442223                    
V 27  10905.430131   1304.250968 -28943.285915     -0.079689                    
P 28  -4822.019642 -25992.846859   2571.470073     79.504485                    
V 28   3513.634735   2496.673374  31542.054656      0.028035                    
P 29  17972.765753  -6318.435730 -18601.714244   -600.276349                    
V 29  21292.235811   9850.860051  17189.898318     -0.013356                    
P 30   -907.806595  25061.251892  -8215.211883   -515.801393                    
V 30  -5713.842941  -9732.131512 -28926.591761      0.022016                    
P 31 -10655.798229 -22562.835093  -8618.052638   -216.594049                    
V 31    937.551644 -11230.954014  29257.467664     -0.007782                    
P 32  -4469.564299 -16468.762499  20583.022204   -482.286150                    
V 32  24800.390691   6730.533493  10672.272179     -0.090743                    
EOF
